start=new Date('2022-12-12T00:00:00.000Z').valueOf();
sats=[{"SITE":"AFETR","TLE_LINE2":"2 48678  53.0538  27.0456 0002062  50.5271 309.5900 15.06398349 85381","MEAN_MOTION":"15.06398349","APOAPSIS":"548.647","ELEMENT_SET_NO":"999","EPHEMERIS_TYPE":"0","OBJECT_ID":"2021-044AS","TIME_SYSTEM":"UTC","TLE_LINE1":"1 48678U 21044AS  22345.63888306  .00005373  00000-0  37938-3 0  9993","REF_FRAME":"TEME","INCLINATION":"53.0538","CENTER_NAME":"EARTH","ECCENTRICITY":"0.00020620","PERIAPSIS":"545.791","OBJECT_NAME":"STARLINK-2615","CLASSIFICATION_TYPE":"U","SEMIMAJOR_AXIS":"6925.354","OBJECT_TYPE":"PAYLOAD","MEAN_ELEMENT_THEORY":"SGP4","FILE":"3691993","DECAY_DATE":null,"LAUNCH_DATE":"2021-05-26","EPOCH":"2022-12-11T15:19:59.496384","MEAN_MOTION_DDOT":"0.0000000000000","BSTAR":"0.00037938000000","GP_ID":"220098203","REV_AT_EPOCH":"8538","ARG_OF_PERICENTER":"50.5271","RCS_SIZE":"LARGE","MEAN_ANOMALY":"309.5900","RA_OF_ASC_NODE":"27.0456","COUNTRY_CODE":"US","PERIOD":"95.592","MEAN_MOTION_DOT":"0.00005373","NORAD_CAT_ID":"48678"},{"OBJECT_ID":"2021-044AT","TIME_SYSTEM":"UTC","TLE_LINE1":"1 48679U 21044AT  22345.63519264 -.00001148  00000-0 -58199-4 0  9999","SITE":"AFETR","TLE_LINE2":"2 48679  53.0554  27.0559 0001324  67.9552 292.1577 15.06393819 85382","MEAN_MOTION":"15.06393819","APOAPSIS":"548.149","ELEMENT_SET_NO":"999","EPHEMERIS_TYPE":"0","PERIAPSIS":"546.316","ECCENTRICITY":"0.00013240","OBJECT_NAME":"STARLINK-2648","REF_FRAME":"TEME","INCLINATION":"53.0554","CENTER_NAME":"EARTH","LAUNCH_DATE":"2021-05-26","EPOCH":"2022-12-11T15:14:40.644096","MEAN_MOTION_DDOT":"0.0000000000000","BSTAR":"-0.00005819900000","GP_ID":"220098953","CLASSIFICATION_TYPE":"U","SEMIMAJOR_AXIS":"6925.368","OBJECT_TYPE":"PAYLOAD","MEAN_ELEMENT_THEORY":"SGP4","FILE":"3691993","DECAY_DATE":null,"RA_OF_ASC_NODE":"27.0559","COUNTRY_CODE":"US","PERIOD":"95.593","NORAD_CAT_ID":"48679","MEAN_MOTION_DOT":"-0.00001148","ARG_OF_PERICENTER":"67.9552","REV_AT_EPOCH":"8538","RCS_SIZE":"LARGE","MEAN_ANOMALY":"292.1577"},{"SITE":"AFETR","TLE_LINE2":"2 48680  53.0537  27.0687 0001804  52.2754 307.8398 15.06406764 85380","EPHEMERIS_TYPE":"0","ELEMENT_SET_NO":"999","APOAPSIS":"548.442","MEAN_MOTION":"15.06406764","TLE_LINE1":"1 48680U 21044AU  22345.63150325  .00007254  00000-0  50526-3 0  9997","TIME_SYSTEM":"UTC","OBJECT_ID":"2021-044AU","INCLINATION":"53.0537","REF_FRAME":"TEME","CENTER_NAME":"EARTH","PERIAPSIS":"545.943","ECCENTRICITY":"0.00018040","OBJECT_NAME":"STARLINK-2649","OBJECT_TYPE":"PAYLOAD","SEMIMAJOR_AXIS":"6925.328","CLASSIFICATION_TYPE":"U","DECAY_DATE":null,"FILE":"3691993","MEAN_ELEMENT_THEORY":"SGP4","GP_ID":"220097701","MEAN_MOTION_DDOT":"0.0000000000000","LAUNCH_DATE":"2021-05-26","BSTAR":"0.00050526000000","EPOCH":"2022-12-11T15:09:21.880800","RCS_SIZE":"LARGE","ARG_OF_PERICENTER":"52.2754","REV_AT_EPOCH":"8538","MEAN_ANOMALY":"307.8398","RA_OF_ASC_NODE":"27.0687","MEAN_MOTION_DOT":"0.00007254","NORAD_CAT_ID":"48680","COUNTRY_CODE":"US","PERIOD":"95.592"},{"PERIOD":"95.592","COUNTRY_CODE":"US","NORAD_CAT_ID":"48681","MEAN_MOTION_DOT":"0.00004296","RA_OF_ASC_NODE":"358.5115","MEAN_ANOMALY":"305.2681","REV_AT_EPOCH":"8665","ARG_OF_PERICENTER":"54.8481","RCS_SIZE":"LARGE","LAUNCH_DATE":"2021-05-26","EPOCH":"2022-12-11T08:45:54.980352","MEAN_MOTION_DDOT":"0.0000000000000","BSTAR":"0.00030712000000","GP_ID":"220060697","MEAN_ELEMENT_THEORY":"SGP4","FILE":"3691394","DECAY_DATE":null,"CLASSIFICATION_TYPE":"U","SEMIMAJOR_AXIS":"6925.338","OBJECT_TYPE":"PAYLOAD","OBJECT_NAME":"STARLINK-2725","ECCENTRICITY":"0.00018410","PERIAPSIS":"545.928","CENTER_NAME":"EARTH","REF_FRAME":"TEME","INCLINATION":"53.0543","OBJECT_ID":"2021-044AV","TIME_SYSTEM":"UTC","TLE_LINE1":"1 48681U 21044AV  22345.36521968  .00004296  00000-0  30712-3 0  9991","MEAN_MOTION":"15.06403399","APOAPSIS":"548.478","ELEMENT_SET_NO":"999","EPHEMERIS_TYPE":"0","TLE_LINE2":"2 48681  53.0543 358.5115 0001841  54.8481 305.2681 15.06403399 86651","SITE":"AFETR"},{"REF_FRAME":"TEME","INCLINATION":"53.0557","CENTER_NAME":"EARTH","PERIAPSIS":"545.690","ECCENTRICITY":"0.00022220","OBJECT_NAME":"STARLINK-2743","TLE_LINE2":"2 48682  53.0557 347.8514 0002222  43.0754 317.0408 15.06394966 85913","SITE":"AFETR","EPHEMERIS_TYPE":"0","MEAN_MOTION":"15.06394966","ELEMENT_SET_NO":"999","APOAPSIS":"548.768","TLE_LINE1":"1 48682U 21044AW  22345.49515069  .00003722  00000-0  26870-3 0  9994","OBJECT_ID":"2021-044AW","TIME_SYSTEM":"UTC","RCS_SIZE":"LARGE","REV_AT_EPOCH":"8591","ARG_OF_PERICENTER":"43.0754","MEAN_ANOMALY":"317.0408","RA_OF_ASC_NODE":"347.8514","NORAD_CAT_ID":"48682","MEAN_MOTION_DOT":"0.00003722","PERIOD":"95.592","COUNTRY_CODE":"US","OBJECT_TYPE":"PAYLOAD","CLASSIFICATION_TYPE":"U","SEMIMAJOR_AXIS":"6925.364","FILE":"3691213","DECAY_DATE":null,"MEAN_ELEMENT_THEORY":"SGP4","GP_ID":"220053568","LAUNCH_DATE":"2021-05-26","BSTAR":"0.00026870000000","MEAN_MOTION_DDOT":"0.0000000000000","EPOCH":"2022-12-11T11:53:01.019616"},{"GP_ID":"220060733","BSTAR":"0.00102280000000","LAUNCH_DATE":"2021-05-26","MEAN_MOTION_DDOT":"0.0000000000000","EPOCH":"2022-12-11T09:13:45.484608","FILE":"3691413","DECAY_DATE":null,"MEAN_ELEMENT_THEORY":"SGP4","OBJECT_TYPE":"PAYLOAD","CLASSIFICATION_TYPE":"U","SEMIMAJOR_AXIS":"6925.314","NORAD_CAT_ID":"48683","MEAN_MOTION_DOT":"0.00014991","PERIOD":"95.591","COUNTRY_CODE":"US","RA_OF_ASC_NODE":"348.1926","MEAN_ANOMALY":"312.9218","RCS_SIZE":"LARGE","REV_AT_EPOCH":"8674","ARG_OF_PERICENTER":"47.1937","TLE_LINE1":"1 48683U 21044AX  22345.38455422  .00014991  00000-0  10228-2 0  9998","OBJECT_ID":"2021-044AX","TIME_SYSTEM":"UTC","EPHEMERIS_TYPE":"0","MEAN_MOTION":"15.06411395","APOAPSIS":"548.551","ELEMENT_SET_NO":"999","SITE":"AFETR","TLE_LINE2":"2 48683  53.0548 348.1926 0001982  47.1937 312.9218 15.06411395 86746","OBJECT_NAME":"STARLINK-2756","PERIAPSIS":"545.806","ECCENTRICITY":"0.00019820","CENTER_NAME":"EARTH","REF_FRAME":"TEME","INCLINATION":"53.0548"},{"MEAN_ANOMALY":"53.3399","ARG_OF_PERICENTER":"306.7399","REV_AT_EPOCH":"8572","RCS_SIZE":"LARGE","PERIOD":"95.591","COUNTRY_CODE":"US","MEAN_MOTION_DOT":"-0.00004767","NORAD_CAT_ID":"48684","RA_OF_ASC_NODE":"2.5357","MEAN_ELEMENT_THEORY":"SGP4","DECAY_DATE":null,"FILE":"3691993","SEMIMAJOR_AXIS":"6925.295","CLASSIFICATION_TYPE":"U","OBJECT_TYPE":"PAYLOAD","MEAN_MOTION_DDOT":"0.0000000000000","LAUNCH_DATE":"2021-05-26","EPOCH":"2022-12-11T14:32:55.245408","BSTAR":"-0.00030114000000","GP_ID":"220097202","CENTER_NAME":"EARTH","INCLINATION":"53.0575","REF_FRAME":"TEME","OBJECT_NAME":"STARLINK-2741","ECCENTRICITY":"0.00020760","PERIAPSIS":"545.722","ELEMENT_SET_NO":"999","APOAPSIS":"548.597","MEAN_MOTION":"15.06417633","EPHEMERIS_TYPE":"0","SITE":"AFETR","TLE_LINE2":"2 48684  53.0575   2.5357 0002076 306.7399  53.3399 15.06417633 85721","TIME_SYSTEM":"UTC","OBJECT_ID":"2021-044AY","TLE_LINE1":"1 48684U 21044AY  22345.60619497 -.00004767  00000-0 -30114-3 0  9997"},{"FILE":"3691398","DECAY_DATE":null,"MEAN_ELEMENT_THEORY":"SGP4","OBJECT_TYPE":"PAYLOAD","SEMIMAJOR_AXIS":"6925.382","CLASSIFICATION_TYPE":"U","GP_ID":"220060438","BSTAR":"0.00007493500000","LAUNCH_DATE":"2021-05-26","MEAN_MOTION_DDOT":"0.0000000000000","EPOCH":"2022-12-11T11:42:22.532256","MEAN_ANOMALY":"318.8208","RCS_SIZE":"LARGE","ARG_OF_PERICENTER":"41.2958","REV_AT_EPOCH":"8676","NORAD_CAT_ID":"48685","MEAN_MOTION_DOT":"0.00000834","COUNTRY_CODE":"US","PERIOD":"95.593","RA_OF_ASC_NODE":"347.7644","EPHEMERIS_TYPE":"0","MEAN_MOTION":"15.06389157","ELEMENT_SET_NO":"999","APOAPSIS":"548.876","TLE_LINE2":"2 48685  53.0538 347.7644 0002353  41.2958 318.8208 15.06389157 86766","SITE":"AFETR","TLE_LINE1":"1 48685U 21044AZ  22345.48776079  .00000834  00000-0  74935-4 0  9993","OBJECT_ID":"2021-044AZ","TIME_SYSTEM":"UTC","CENTER_NAME":"EARTH","REF_FRAME":"TEME","INCLINATION":"53.0538","OBJECT_NAME":"STARLINK-2751","PERIAPSIS":"545.617","ECCENTRICITY":"0.00023530"},{"SEMIMAJOR_AXIS":"6925.371","CLASSIFICATION_TYPE":"U","OBJECT_TYPE":"PAYLOAD","MEAN_ELEMENT_THEORY":"SGP4","DECAY_DATE":null,"FILE":"3690276","BSTAR":"0.00010258000000","LAUNCH_DATE":"2021-05-26","MEAN_MOTION_DDOT":"0.0000000000000","EPOCH":"2022-12-11T08:22:42.726432","GP_ID":"220009100","REV_AT_EPOCH":"8672","ARG_OF_PERICENTER":"44.3254","RCS_SIZE":"LARGE","MEAN_ANOMALY":"315.7900","RA_OF_ASC_NODE":"353.6221","COUNTRY_CODE":"US","PERIOD":"95.593","NORAD_CAT_ID":"48686","MEAN_MOTION_DOT":"0.00001246","SITE":"AFETR","TLE_LINE2":"2 48686  53.0577 353.6221 0002062  44.3254 315.7900 15.06392691 86725","ELEMENT_SET_NO":"999","APOAPSIS":"548.664","MEAN_MOTION":"15.06392691","EPHEMERIS_TYPE":"0","TIME_SYSTEM":"UTC","OBJECT_ID":"2021-044BA","TLE_LINE1":"1 48686U 21044BA  22345.34910563  .00001246  00000-0  10258-3 0  9992","INCLINATION":"53.0577","REF_FRAME":"TEME","CENTER_NAME":"EARTH","PERIAPSIS":"545.808","ECCENTRICITY":"0.00020620","OBJECT_NAME":"STARLINK-2629"},{"TLE_LINE1":"1 48687U 21044BB  22345.32419347  .00002052  00000-0  15663-3 0  9996","TIME_SYSTEM":"UTC","OBJECT_ID":"2021-044BB","EPHEMERIS_TYPE":"0","ELEMENT_SET_NO":"999","APOAPSIS":"548.368","MEAN_MOTION":"15.06394874","TLE_LINE2":"2 48687  53.0566 343.4450 0001644  55.5564 304.5580 15.06394874 85968","SITE":"AFETR","OBJECT_NAME":"STARLINK-2627","ECCENTRICITY":"0.00016440","PERIAPSIS":"546.091","CENTER_NAME":"EARTH","INCLINATION":"53.0566","REF_FRAME":"TEME","GP_ID":"220098954","MEAN_MOTION_DDOT":"0.0000000000000","LAUNCH_DATE":"2021-05-26","EPOCH":"2022-12-11T07:46:50.315808","BSTAR":"0.00015663000000","DECAY_DATE":null,"FILE":"3691993","MEAN_ELEMENT_THEORY":"SGP4","OBJECT_TYPE":"PAYLOAD","CLASSIFICATION_TYPE":"U","SEMIMAJOR_AXIS":"6925.364","MEAN_MOTION_DOT":"0.00002052","NORAD_CAT_ID":"48687","PERIOD":"95.592","COUNTRY_CODE":"US","RA_OF_ASC_NODE":"343.4450","MEAN_ANOMALY":"304.5580","RCS_SIZE":"LARGE","ARG_OF_PERICENTER":"55.5564","REV_AT_EPOCH":"8596"}];
